ONEWEB-0033             
1 45142U 20008M   26126.51436856  .00000267  00000+0  72887-3 0  9990
2 45142  87.8855  44.5713 0001608  62.9220 297.2072 13.10376866302756
ONEWEB-0035             
1 45143U 20008N   26126.46471264  .00000368  00000+0  10109-2 0  9997
2 45143  87.8849  44.5772 0001807  75.1882 284.9446 13.10882748302474
ONEWEB-0036             
1 45144U 20008P   26126.49313876 -.00000634  00000+0 -18669-2 0  9992
2 45144  87.8871  44.5658 0001951  85.0234 275.1116 13.09820629302906
ONEWEB-0038             
1 45145U 20008Q   26126.43453477 -.00000103  00000+0 -32741-3 0  9998
2 45145  87.8938  29.3738 0003211  54.4617 305.6810 13.11416920304851
ONEWEB-0039             
1 45146U 20008R   26126.51768735  .00000449  00000+0  12507-2 0  9992
2 45146  87.8861  44.5594 0002280  85.1564 274.9824 13.10375484302706
ONEWEB-0040             
1 45147U 20008S   26126.51104041  .00000132  00000+0  34044-3 0  9997
2 45147  87.8856  44.5728 0001912  75.9988 284.1352 13.10376682302405
ONEWEB-0043             
1 45149U 20008U   26126.51269907  .00000209  00000+0  56204-3 0  9999
2 45149  87.8859  44.5587 0002382  86.9024 273.2376 13.10376290302723
ONEWEB-0044             
1 45150U 20008V   26126.46457294  .00000396  00000+0  10992-2 0  9993
2 45150  87.8859  44.5663 0002063  80.0833 280.0528 13.10371298303010
ONEWEB-0045             
1 45151U 20008W   26126.42931248  .00000059  00000+0  12978-3 0  9999
2 45151  87.8928  29.3603 0001929  79.3382 280.7963 13.11416949304939
ONEWEB-0047             
1 45152U 20008X   26126.30521647  .00000608  00000+0  17054-2 0  9994
2 45152  87.8860  44.5981 0001887  73.2217 286.9117 13.10372107302715
ONEWEB-0048             
1 45153U 20008Y   26126.52931078  .00000727  00000+0  20475-2 0  9995
2 45153  87.8853  44.5775 0001871  75.7656 284.3679 13.10373284302358
ONEWEB-0049             
1 45154U 20008Z   26126.53249562  .00000621  00000+0  17421-2 0  9997
2 45154  87.8856  44.5653 0001780  92.3601 267.7730 13.10372728302570
ONEWEB-0051             
1 45155U 20008AA  26126.42762588  .00000171  00000+0  44650-3 0  9999
2 45155  87.8921  29.3711 0001836  79.3535 280.7800 13.11413605305615
ONEWEB-0052             
1 45156U 20008AB  26126.47632020 -.00000177  00000+0 -54343-3 0  9990
2 45156  87.8855  44.5620 0001804  93.1411 266.9923 13.10371068302470
ONEWEB-0053             
1 45157U 20008AC  26126.50937965  .00000052  00000+0  11246-3 0  9996
2 45157  87.8858  44.5785 0002193  89.9656 270.1723 13.10377544302450
ONEWEB-0054             
1 45158U 20008AD  26126.46788452  .00000246  00000+0  66712-3 0  9990
2 45158  87.8859  44.5659 0001824  80.4770 279.6563 13.10370417302565
