[{"OBJECT_NAME":"ONEWEB-0033","OBJECT_ID":"2020-008M","EPOCH":"2026-05-06T12:20:41.443584","MEAN_MOTION":13.10376866,"ECCENTRICITY":0.0001608,"INCLINATION":87.8855,"RA_OF_ASC_NODE":44.5713,"ARG_OF_PERICENTER":62.922,"MEAN_ANOMALY":297.2072,"EPHEMERIS_TYPE":0,"CLASSIFICATION_TYPE":"U","NORAD_CAT_ID":45142,"ELEMENT_SET_NO":999,"REV_AT_EPOCH":30275,"BSTAR":0.0007288700000000001,"MEAN_MOTION_DOT":2.67e-06,"MEAN_MOTION_DDOT":0.0},{"OBJECT_NAME":"ONEWEB-0035","OBJECT_ID":"2020-008N","EPOCH":"2026-05-06T11:09:11.172096","MEAN_MOTION":13.10882748,"ECCENTRICITY":0.0001807,"INCLINATION":87.8849,"RA_OF_ASC_NODE":44.5772,"ARG_OF_PERICENTER":75.1882,"MEAN_ANOMALY":284.9446,"EPHEMERIS_TYPE":0,"CLASSIFICATION_TYPE":"U","NORAD_CAT_ID":45143,"ELEMENT_SET_NO":999,"REV_AT_EPOCH":30247,"BSTAR":0.0010109,"MEAN_MOTION_DOT":3.68e-06,"MEAN_MOTION_DDOT":0.0},{"OBJECT_NAME":"ONEWEB-0036","OBJECT_ID":"2020-008P","EPOCH":"2026-05-06T11:50:07.188864","MEAN_MOTION":13.09820629,"ECCENTRICITY":0.0001951,"INCLINATION":87.8871,"RA_OF_ASC_NODE":44.5658,"ARG_OF_PERICENTER":85.0234,"MEAN_ANOMALY":275.1116,"EPHEMERIS_TYPE":0,"CLASSIFICATION_TYPE":"U","NORAD_CAT_ID":45144,"ELEMENT_SET_NO":999,"REV_AT_EPOCH":30290,"BSTAR":-0.0018669,"MEAN_MOTION_DOT":-6.34e-06,"MEAN_MOTION_DDOT":0.0},{"OBJECT_NAME":"ONEWEB-0038","OBJECT_ID":"2020-008Q","EPOCH":"2026-05-06T10:25:43.804128","MEAN_MOTION":13.1141692,"ECCENTRICITY":0.0003211,"INCLINATION":87.8938,"RA_OF_ASC_NODE":29.3738,"ARG_OF_PERICENTER":54.4617,"MEAN_ANOMALY":305.681,"EPHEMERIS_TYPE":0,"CLASSIFICATION_TYPE":"U","NORAD_CAT_ID":45145,"ELEMENT_SET_NO":999,"REV_AT_EPOCH":30485,"BSTAR":-0.00032741,"MEAN_MOTION_DOT":-1.03e-06,"MEAN_MOTION_DDOT":0.0},{"OBJECT_NAME":"ONEWEB-0039","OBJECT_ID":"2020-008R","EPOCH":"2026-05-06T12:25:28.187040","MEAN_MOTION":13.10375484,"ECCENTRICITY":0.000228,"INCLINATION":87.8861,"RA_OF_ASC_NODE":44.5594,"ARG_OF_PERICENTER":85.1564,"MEAN_ANOMALY":274.9824,"EPHEMERIS_TYPE":0,"CLASSIFICATION_TYPE":"U","NORAD_CAT_ID":45146,"ELEMENT_SET_NO":999,"REV_AT_EPOCH":30270,"BSTAR":0.0012507,"MEAN_MOTION_DOT":4.49e-06,"MEAN_MOTION_DDOT":0.0},{"OBJECT_NAME":"ONEWEB-0040","OBJECT_ID":"2020-008S","EPOCH":"2026-05-06T12:15:53.891424","MEAN_MOTION":13.10376682,"ECCENTRICITY":0.0001912,"INCLINATION":87.8856,"RA_OF_ASC_NODE":44.5728,"ARG_OF_PERICENTER":75.9988,"MEAN_ANOMALY":284.1352,"EPHEMERIS_TYPE":0,"CLASSIFICATION_TYPE":"U","NORAD_CAT_ID":45147,"ELEMENT_SET_NO":999,"REV_AT_EPOCH":30240,"BSTAR":0.00034044,"MEAN_MOTION_DOT":1.32e-06,"MEAN_MOTION_DDOT":0.0},{"OBJECT_NAME":"ONEWEB-0043","OBJECT_ID":"2020-008U","EPOCH":"2026-05-06T12:18:17.199648","MEAN_MOTION":13.1037629,"ECCENTRICITY":0.0002382,"INCLINATION":87.8859,"RA_OF_ASC_NODE":44.5587,"ARG_OF_PERICENTER":86.9024,"MEAN_ANOMALY":273.2376,"EPHEMERIS_TYPE":0,"CLASSIFICATION_TYPE":"U","NORAD_CAT_ID":45149,"ELEMENT_SET_NO":999,"REV_AT_EPOCH":30272,"BSTAR":0.00056204,"MEAN_MOTION_DOT":2.09e-06,"MEAN_MOTION_DDOT":0.0},{"OBJECT_NAME":"ONEWEB-0044","OBJECT_ID":"2020-008V","EPOCH":"2026-05-06T11:08:59.102016","MEAN_MOTION":13.10371298,"ECCENTRICITY":0.0002063,"INCLINATION":87.8859,"RA_OF_ASC_NODE":44.5663,"ARG_OF_PERICENTER":80.0833,"MEAN_ANOMALY":280.0528,"EPHEMERIS_TYPE":0,"CLASSIFICATION_TYPE":"U","NORAD_CAT_ID":45150,"ELEMENT_SET_NO":999,"REV_AT_EPOCH":30301,"BSTAR":0.0010992,"MEAN_MOTION_DOT":3.96e-06,"MEAN_MOTION_DDOT":0.0},{"OBJECT_NAME":"ONEWEB-0045","OBJECT_ID":"2020-008W","EPOCH":"2026-05-06T10:18:12.598272","MEAN_MOTION":13.11416949,"ECCENTRICITY":0.0001929,"INCLINATION":87.8928,"RA_OF_ASC_NODE":29.3603,"ARG_OF_PERICENTER":79.3382,"MEAN_ANOMALY":280.7963,"EPHEMERIS_TYPE":0,"CLASSIFICATION_TYPE":"U","NORAD_CAT_ID":45151,"ELEMENT_SET_NO":999,"REV_AT_EPOCH":30493,"BSTAR":0.00012978000000000002,"MEAN_MOTION_DOT":5.9e-07,"MEAN_MOTION_DDOT":0.0},{"OBJECT_NAME":"ONEWEB-0047","OBJECT_ID":"2020-008X","EPOCH":"2026-05-06T07:19:30.703008","MEAN_MOTION":13.10372107,"ECCENTRICITY":0.0001887,"INCLINATION":87.886,"RA_OF_ASC_NODE":44.5981,"ARG_OF_PERICENTER":73.2217,"MEAN_ANOMALY":286.9117,"EPHEMERIS_TYPE":0,"CLASSIFICATION_TYPE":"U","NORAD_CAT_ID":45152,"ELEMENT_SET_NO":999,"REV_AT_EPOCH":30271,"BSTAR":0.0017054,"MEAN_MOTION_DOT":6.08e-06,"MEAN_MOTION_DDOT":0.0},{"OBJECT_NAME":"ONEWEB-0048","OBJECT_ID":"2020-008Y","EPOCH":"2026-05-06T12:42:12.451392","MEAN_MOTION":13.10373284,"ECCENTRICITY":0.0001871,"INCLINATION":87.8853,"RA_OF_ASC_NODE":44.5775,"ARG_OF_PERICENTER":75.7656,"MEAN_ANOMALY":284.3679,"EPHEMERIS_TYPE":0,"CLASSIFICATION_TYPE":"U","NORAD_CAT_ID":45153,"ELEMENT_SET_NO":999,"REV_AT_EPOCH":30235,"BSTAR":0.0020475,"MEAN_MOTION_DOT":7.27e-06,"MEAN_MOTION_DDOT":0.0},{"OBJECT_NAME":"ONEWEB-0049","OBJECT_ID":"2020-008Z","EPOCH":"2026-05-06T12:46:47.621568","MEAN_MOTION":13.10372728,"ECCENTRICITY":0.000178,"INCLINATION":87.8856,"RA_OF_ASC_NODE":44.5653,"ARG_OF_PERICENTER":92.3601,"MEAN_ANOMALY":267.773,"EPHEMERIS_TYPE":0,"CLASSIFICATION_TYPE":"U","NORAD_CAT_ID":45154,"ELEMENT_SET_NO":999,"REV_AT_EPOCH":30257,"BSTAR":0.0017421000000000001,"MEAN_MOTION_DOT":6.21e-06,"MEAN_MOTION_DDOT":0.0},{"OBJECT_NAME":"ONEWEB-0051","OBJECT_ID":"2020-008AA","EPOCH":"2026-05-06T10:15:46.876032","MEAN_MOTION":13.11413605,"ECCENTRICITY":0.0001836,"INCLINATION":87.8921,"RA_OF_ASC_NODE":29.3711,"ARG_OF_PERICENTER":79.3535,"MEAN_ANOMALY":280.78,"EPHEMERIS_TYPE":0,"CLASSIFICATION_TYPE":"U","NORAD_CAT_ID":45155,"ELEMENT_SET_NO":999,"REV_AT_EPOCH":30561,"BSTAR":0.0004465,"MEAN_MOTION_DOT":1.71e-06,"MEAN_MOTION_DDOT":0.0},{"OBJECT_NAME":"ONEWEB-0052","OBJECT_ID":"2020-008AB","EPOCH":"2026-05-06T11:25:54.065280","MEAN_MOTION":13.10371068,"ECCENTRICITY":0.0001804,"INCLINATION":87.8855,"RA_OF_ASC_NODE":44.562,"ARG_OF_PERICENTER":93.1411,"MEAN_ANOMALY":266.9923,"EPHEMERIS_TYPE":0,"CLASSIFICATION_TYPE":"U","NORAD_CAT_ID":45156,"ELEMENT_SET_NO":999,"REV_AT_EPOCH":30247,"BSTAR":-0.00054343,"MEAN_MOTION_DOT":-1.77e-06,"MEAN_MOTION_DDOT":0.0},{"OBJECT_NAME":"ONEWEB-0053","OBJECT_ID":"2020-008AC","EPOCH":"2026-05-06T12:13:30.401760","MEAN_MOTION":13.10377544,"ECCENTRICITY":0.0002193,"INCLINATION":87.8858,"RA_OF_ASC_NODE":44.5785,"ARG_OF_PERICENTER":89.9656,"MEAN_ANOMALY":270.1723,"EPHEMERIS_TYPE":0,"CLASSIFICATION_TYPE":"U","NORAD_CAT_ID":45157,"ELEMENT_SET_NO":999,"REV_AT_EPOCH":30245,"BSTAR":0.00011246,"MEAN_MOTION_DOT":5.2e-07,"MEAN_MOTION_DDOT":0.0},{"OBJECT_NAME":"ONEWEB-0054","OBJECT_ID":"2020-008AD","EPOCH":"2026-05-06T11:13:45.222528","MEAN_MOTION":13.10370417,"ECCENTRICITY":0.0001824,"INCLINATION":87.8859,"RA_OF_ASC_NODE":44.5659,"ARG_OF_PERICENTER":80.477,"MEAN_ANOMALY":279.6563,"EPHEMERIS_TYPE":0,"CLASSIFICATION_TYPE":"U","NORAD_CAT_ID":45158,"ELEMENT_SET_NO":999,"REV_AT_EPOCH":30256,"BSTAR":0.0006671200000000001,"MEAN_MOTION_DOT":2.46e-06,"MEAN_MOTION_DDOT":0.0}]